CCSDS_OMM_VERS,COMMENT,CREATION_DATE,ORIGINATOR,OBJECT_NAME,OBJECT_ID,CENTER_NAME,REF_FRAME,TIME_SYSTEM,MEAN_ELEMENT_THEORY,EPOCH,MEAN_MOTION,ECCENTRICITY,INCLINATION,RA_OF_ASC_NODE,ARG_OF_PERICENTER,MEAN_ANOMALY,EPHEMERIS_TYPE,CLASSIFICATION_TYPE,NORAD_CAT_ID,ELEMENT_SET_NO,REV_AT_EPOCH,BSTAR,MEAN_MOTION_DOT,MEAN_MOTION_DDOT,SEMIMAJOR_AXIS,PERIOD,APOAPSIS,PERIAPSIS,OBJECT_TYPE,RCS_SIZE,COUNTRY_CODE,LAUNCH_DATE,SITE,DECAY_DATE,FILE,GP_ID,TLE_LINE0,TLE_LINE1,TLE_LINE2,NORAD_KEY
3.0,GENERATED VIA SPACE-TRACK.ORG API,2026-05-06T14:46:56,18 SPCS,INTELSAT 505,1982-097A,EARTH,TEME,UTC,SGP4,2026-05-06T08:00:23.117760,0.98407354,0.0019062,12.191,331.6198,45.1701,328.1895,0,U,13595,999,12762,0.00000000000000,-0.00000186,0.0000000000000,42695.634,1463.305,36398.886,36236.113,PAYLOAD,LARGE,ITSO,1982-09-28,AFETR,,5177250,322299985,0 INTELSAT 505,1 13595U 82097A   26126.33360090 -.00000186  00000-0  00000+0 0  9995,2 13595  12.1910 331.6198 0019062  45.1701 328.1895  0.98407354127620,13595
3.0,GENERATED VIA SPACE-TRACK.ORG API,2026-05-06T14:56:52,18 SPCS,MEASAT 2,1996-063B,EARTH,TEME,UTC,SGP4,2026-05-06T04:50:31.612128,0.99655393,0.0004013,12.1965,29.3079,205.9403,1.3951,0,U,24653,999,10786,0.00000000000000,-0.00000249,0.0000000000000,42338.419,1444.98,35977.274,35943.294,PAYLOAD,LARGE,MALA,1996-11-13,FRGUI,,5177536,322306130,0 MEASAT 2,1 24653U 96063B   26126.20175477 -.00000249  00000-0  00000+0 0  9999,2 24653  12.1965  29.3079 0004013 205.9403   1.3951  0.99655393107867,24653
3.0,GENERATED VIA SPACE-TRACK.ORG API,2026-05-06T10:08:52,18 SPCS,INTELSAT 26 (JCSAT 4),1997-007A,EARTH,TEME,UTC,SGP4,2026-05-06T02:38:57.936192,0.98908275,0.00117506,12.2173,29.8443,296.937,250.1552,0,U,24732,999,10663,0.00000000000000,-0.00000209,0.0000000000000,42551.358,1455.894,36223.223,36123.222,PAYLOAD,LARGE,ITSO,1997-02-17,AFETR,,5176958,322265214,0 INTELSAT 26 (JCSAT 4),1 24732U 97007A   26126.11039278 -.00000209  00000-0  00000-0 0  9991,2 24732  12.2173  29.8443 0011751 296.9370 250.1552  0.98908275106631,24732
3.0,GENERATED VIA SPACE-TRACK.ORG API,2026-05-06T14:56:52,18 SPCS,SUPERBIRD A,1989-041A,EARTH,TEME,UTC,SGP4,2026-05-06T02:26:25.730880,0.99745018,0.0004641,12.226,332.5999,71.9722,129.562,0,U,20040,999,13404,0.00000000000000,-0.00000142,0.0000000000000,42313.053,1443.681,35954.556,35915.281,PAYLOAD,LARGE,JPN,1989-06-05,FRGUI,,5177403,322303404,0 SUPERBIRD A,1 20040U 89041A   26126.10168670 -.00000142  00000-0  00000+0 0  9991,2 20040  12.2260 332.5999 0004641  71.9722 129.5620  0.99745018134044,20040
3.0,GENERATED VIA SPACE-TRACK.ORG API,2026-05-06T02:32:52,18 SPCS,ASTRA 1D,1994-070A,EARTH,TEME,UTC,SGP4,2026-05-05T20:31:38.633664,0.98949498,0.00041707,12.2324,29.0392,105.2878,80.342,0,U,23331,999,11552,0.00000000000000,0.00000028,0.0000000000000,42539.539,1455.288,36179.146,36143.662,PAYLOAD,LARGE,SES,1994-11-01,FRGUI,,5176277,322215338,0 ASTRA 1D,1 23331U 94070A   26125.85530826  .00000028  00000-0  00000-0 0  9995,2 23331  12.2324  29.0392 0004171 105.2878  80.3420  0.98949498115528,23331
3.0,GENERATED VIA SPACE-TRACK.ORG API,2026-05-06T02:32:52,18 SPCS,EXPRESS 3A,2000-031A,EARTH,TEME,UTC,SGP4,2026-05-05T15:26:42.579168,0.98767993,0.00075919,12.2331,32.5709,216.908,321.9103,0,U,26378,999,9380,0.00000000000000,-0.00000156,0.0000000000000,42591.639,1457.962,36245.839,36181.169,PAYLOAD,LARGE,CIS,2000-06-24,TTMTR,,5176277,322216838,0 EXPRESS 3A,1 26378U 00031A   26125.64354837 -.00000156  00000-0  00000-0 0  9999,2 26378  12.2331  32.5709 0007592 216.9080 321.9103  0.98767993 93802,26378
3.0,GENERATED VIA SPACE-TRACK.ORG API,2026-05-06T14:46:56,18 SPCS,ANIK D1 (TELESAT 6),1982-082A,EARTH,TEME,UTC,SGP4,2026-05-06T11:49:40.009152,1.00119115,0.0006968,12.2566,333.2139,350.1681,199.8462,0,U,13431,999,4618,0.00000000000000,-0.00000368,0.0000000000000,42207.585,1438.287,35858.861,35800.04,PAYLOAD,LARGE,CA,1982-08-26,AFETR,,5177247,322299447,0 ANIK D1 (TELESAT 6),1 13431U 82082A   26126.49282418 -.00000368  00000-0  00000+0 0  9994,2 13431  12.2566 333.2139 0006968 350.1681 199.8462  1.00119115 46180,13431
3.0,GENERATED VIA SPACE-TRACK.ORG API,2026-05-06T15:06:46,18 SPCS,INTELSAT 6B (PAS 6B),1998-075A,EARTH,TEME,UTC,SGP4,2026-05-06T05:49:30.252000,0.99151079,0.0014507,12.2702,31.1237,171.4806,9.8488,0,U,25585,999,9957,0.00000000000000,-0.00000002,0.0000000000000,42481.862,1452.329,36165.356,36042.099,PAYLOAD,LARGE,US,1998-12-22,FRGUI,,5177716,322311204,0 INTELSAT 6B (PAS 6B),1 25585U 98075A   26126.24271125 -.00000002  00000-0  00000+0 0  9997,2 25585  12.2702  31.1237 0014507 171.4806   9.8488  0.99151079 99570,25585
3.0,GENERATED VIA SPACE-TRACK.ORG API,2026-05-06T15:06:46,18 SPCS,CHINASAT 32 (BEIDOU 1),2000-069A,EARTH,TEME,UTC,SGP4,2026-05-06T11:13:41.236896,0.98905737,0.0010986,12.2802,32.6093,346.3067,75.5805,0,U,26599,999,9277,0.00000000000000,0.00000061,0.0000000000000,42552.086,1455.932,36220.698,36127.203,PAYLOAD,LARGE,PRC,2000-10-30,XSC,,5177721,322311261,0 CHINASAT 32 (BEIDOU 1),1 26599U 00069A   26126.46783839  .00000061  00000-0  00000+0 0  9997,2 26599  12.2802  32.6093 0010986 346.3067  75.5805  0.98905737 92777,26599
3.0,GENERATED VIA SPACE-TRACK.ORG API,2026-05-06T14:56:52,18 SPCS,SOLIDARIDAD 2,1994-065A,EARTH,TEME,UTC,SGP4,2026-05-06T02:06:38.500704,0.98866683,0.0004977,12.2821,31.597,346.845,204.3762,0,U,23313,999,11492,0.00000000000000,-0.00000232,0.0000000000000,42563.291,1456.507,36206.34,36163.972,PAYLOAD,LARGE,MEX,1994-10-08,FRGUI,,5177503,322305654,0 SOLIDARIDAD 2,1 23313U 94065A   26126.08794561 -.00000232  00000-0  00000+0 0  9990,2 23313  12.2821  31.5970 0004977 346.8450 204.3762  0.98866683114927,23313
3.0,GENERATED VIA SPACE-TRACK.ORG API,2026-05-06T14:56:52,18 SPCS,COSMOS 2054,1989-101A,EARTH,TEME,UTC,SGP4,2026-05-06T07:10:38.638848,1.0026029,8.7e-05,12.2842,334.5431,224.1083,315.8616,0,U,20391,999,13344,0.00000000000000,0.00000049,0.0000000000000,42167.955,1436.262,35793.488,35786.151,PAYLOAD,LARGE,CIS,1989-12-27,TTMTR,,5177412,322303017,0 COSMOS 2054,1 20391U 89101A   26126.29905832  .00000049  00000-0  00000+0 0  9991,2 20391  12.2842 334.5431 0000870 224.1083 315.8616  1.00260290133449,20391
3.0,GENERATED VIA SPACE-TRACK.ORG API,2026-05-06T14:56:52,18 SPCS,OPTUS B3,1994-055A,EARTH,TEME,UTC,SGP4,2026-05-06T09:00:34.056288,0.98697131,0.0007117,12.2958,30.6516,11.22,168.6208,0,U,23227,999,11550,0.00000000000000,-0.00000036,0.0000000000000,42612.023,1459.009,36264.215,36203.561,PAYLOAD,LARGE,AUS,1994-08-27,XSC,,5177499,322305604,0 OPTUS B3,1 23227U 94055A   26126.37539417 -.00000036  00000-0  00000+0 0  9994,2 23227  12.2958  30.6516 0007117  11.2200 168.6208  0.98697131115505,23227
3.0,GENERATED VIA SPACE-TRACK.ORG API,2026-05-06T10:08:52,18 SPCS,GORIZONT 17,1989-004A,EARTH,TEME,UTC,SGP4,2026-05-06T03:08:47.575680,0.99063997,0.00187579,12.3133,333.6061,168.8608,186.4423,0,U,19765,999,13515,0.00000000000000,0.00000068,0.0000000000000,42506.754,1453.606,36208.353,36048.885,PAYLOAD,LARGE,CIS,1989-01-26,TTMTR,,5176958,322263893,0 GORIZONT 17,1 19765U 89004A   26126.13110620  .00000068  00000-0  00000-0 0  9994,2 19765  12.3133 333.6061 0018758 168.8608 186.4423  0.99063997135156,19765
3.0,GENERATED VIA SPACE-TRACK.ORG API,2026-05-06T14:56:52,18 SPCS,BS-2B (YURI 2B),1986-016A,EARTH,TEME,UTC,SGP4,2026-05-06T07:11:37.376160,0.99293141,0.0011841,12.317,332.5863,226.8522,322.1123,0,U,16597,999,12770,0.00000000000000,-0.00000075,0.0000000000000,42441.332,1450.251,36113.452,36012.943,PAYLOAD,LARGE,JPN,1986-02-12,TNSTA,,5177379,322302127,0 BS-2B (YURI 2B),1 16597U 86016A   26126.29973815 -.00000075  00000-0  00000+0 0  9992,2 16597  12.3170 332.5863 0011841 226.8522 322.1123  0.99293141127705,16597
3.0,GENERATED VIA SPACE-TRACK.ORG API,2026-05-06T10:08:52,18 SPCS,UFO 3 (USA 104),1994-035A,EARTH,TEME,UTC,SGP4,2026-05-05T21:41:48.072768,1.00268216,0.00031946,12.3499,5.9698,311.6014,222.3904,0,U,23132,999,13127,0.00000000000000,-0.00000092,0.0000000000000,42165.732,1436.148,35801.068,35774.127,PAYLOAD,LARGE,US,1994-06-24,AFETR,,5176958,322264508,0 UFO 3 (USA 104),1 23132U 94035A   26125.90402862 -.00000092  00000-0  00000-0 0  9991,2 23132  12.3499   5.9698 0003195 311.6014 222.3904  1.00268216131274,23132
3.0,GENERATED VIA SPACE-TRACK.ORG API,2026-05-06T14:56:52,18 SPCS,RADUGA 25,1990-016A,EARTH,TEME,UTC,SGP4,2026-05-06T11:07:44.169024,1.00192591,0.0004266,12.3654,334.9903,213.6034,139.3971,0,U,20499,999,13248,0.00000000000000,-0.00000288,0.0000000000000,42186.948,1437.232,35826.809,35790.816,PAYLOAD,LARGE,CIS,1990-02-15,TTMTR,,5177415,322303558,0 RADUGA 25,1 20499U 90016A   26126.46370566 -.00000288  00000-0  00000+0 0  9992,2 20499  12.3654 334.9903 0004266 213.6034 139.3971  1.00192591132484,20499
3.0,GENERATED VIA SPACE-TRACK.ORG API,2026-05-06T14:56:52,18 SPCS,AFRICASAT 1 (MEASAT 1),1996-002B,EARTH,TEME,UTC,SGP4,2026-05-06T10:08:53.698272,0.990617,0.000525,12.3687,29.6288,325.9939,240.7822,0,U,23765,999,11043,0.00000000000000,0.00000043,0.0000000000000,42507.411,1453.639,36151.593,36106.96,PAYLOAD,LARGE,MALA,1996-01-12,FRGUI,,5177519,322305354,0 AFRICASAT 1 (MEASAT 1),1 23765U 96002B   26126.42284373  .00000043  00000-0  00000+0 0  9996,2 23765  12.3687  29.6288 0005250 325.9939 240.7822  0.99061700110435,23765
3.0,GENERATED VIA SPACE-TRACK.ORG API,2026-05-06T02:32:52,18 SPCS,FENGYUN 2C,2004-042A,EARTH,TEME,UTC,SGP4,2026-05-05T19:24:47.511936,0.98081518,0.00039903,12.3689,31.5024,351.5718,203.3714,0,U,28451,999,4075,0.00000000000000,-0.00000007,0.0000000000000,42790.142,1468.167,36429.081,36394.932,PAYLOAD,LARGE,PRC,2004-10-19,XSC,,5176277,322217757,0 FENGYUN 2C,1 28451U 04042A   26125.80888324 -.00000007  00000-0  00000-0 0  9995,2 28451  12.3689  31.5024 0003990 351.5718 203.3714  0.98081518 40753,28451
